{"type": "FeatureCollection", "features": [ {"type": "Feature", "properties": {"norad_id": 66416, "name": "HULIANWANG DIGUI 13E", "group": "last-30-days", "lat": -26.486302399917417, "lon": -90.07217632966469, "alt_km": 807.9561478925598, "timestamp": "2025-12-04T23:34:04.489874+00:00", "meta": {"OBJECT_NAME": "HULIANWANG DIGUI 13E", "OBJECT_ID": "2025-258E", "EPOCH": "2025-12-02T04:20:20.565312", "MEAN_MOTION": 14.23468154, "ECCENTRICITY": 0.0012751, "INCLINATION": 50.0045, "RA_OF_ASC_NODE": 306.4445, "ARG_OF_PERICENTER": 327.4493, "MEAN_ANOMALY": 32.5632, "EPHEMERIS_TYPE": 0, "CLASSIFICATION_TYPE": "U", "NORAD_CAT_ID": 66416, "ELEMENT_SET_NO": 999, "REV_AT_EPOCH": 315, "BSTAR": 0.00010445686, "MEAN_MOTION_DOT": 8e-07, "MEAN_MOTION_DDOT": 0}, "tle": {"line1": "1 66416U 25258E   25336.18079358  .00000080  00000+0  10446-3 0  9990", "line2": "2 66416  50.0045 306.4445 0012751 327.4493  32.5632 14.23468154  3151"}}, "geometry": {"type": "Point", "coordinates": [-90.07217632966469, -26.486302399917417]}}, {"type": "Feature", "properties": {"norad_id": 66417, "name": "HULIANWANG DIGUI 13F", "group": "last-30-days", "lat": -21.492229015409933, "lon": -84.68329578655364, "alt_km": 807.5702343820958, "timestamp": "2025-12-04T23:34:04.489887+00:00", "meta": {"OBJECT_NAME": "HULIANWANG DIGUI 13F", "OBJECT_ID": "2025-258F", "EPOCH": "2025-12-04T15:16:37.404192", "MEAN_MOTION": 14.23479086, "ECCENTRICITY": 0.00124087, "INCLINATION": 49.9997, "RA_OF_ASC_NODE": 296.0767, "ARG_OF_PERICENTER": 334.514, "MEAN_ANOMALY": 25.516, "EPHEMERIS_TYPE": 0, "CLASSIFICATION_TYPE": "U", "NORAD_CAT_ID": 66417, "ELEMENT_SET_NO": 999, "REV_AT_EPOCH": 350, "BSTAR": 0.00015703187, "MEAN_MOTION_DOT": 2e-06, "MEAN_MOTION_DDOT": 0}, "tle": {"line1": "1 66417U 25258F   25338.63654403  .00000200  00000+0  15703-3 0  9998", "line2": "2 66417  49.9997 296.0767 0012408 334.5140  25.5160 14.23479086  3506"}}, "geometry": {"type": "Point", "coordinates": [-84.68329578655364, -21.492229015409933]}}, {"type": "Feature", "properties": {"norad_id": 66418, "name": "HULIANWANG DIGUI 13G", "group": "last-30-days", "lat": -5.331723875124335, "lon": -69.9098405700909, "alt_km": 806.4774537536132, "timestamp": "2025-12-04T23:34:04.489897+00:00", "meta": {"OBJECT_NAME": "HULIANWANG DIGUI 13G", "OBJECT_ID": "2025-258G", "EPOCH": "2025-12-04T15:10:34.276224", "MEAN_MOTION": 14.23490562, "ECCENTRICITY": 0.00124318, "INCLINATION": 50.0018, "RA_OF_ASC_NODE": 296.0558, "ARG_OF_PERICENTER": 329.9358, "MEAN_ANOMALY": 30.0841, "EPHEMERIS_TYPE": 0, "CLASSIFICATION_TYPE": "U", "NORAD_CAT_ID": 66418, "ELEMENT_SET_NO": 999, "REV_AT_EPOCH": 350, "BSTAR": 0.00015083927, "MEAN_MOTION_DOT": 1.86e-06, "MEAN_MOTION_DDOT": 0}, "tle": {"line1": "1 66418U 25258G   25338.63234116  .00000186  00000+0  15084-3 0  9999", "line2": "2 66418  50.0018 296.0558 0012431 329.9358  30.0841 14.23490562  3506"}}, "geometry": {"type": "Point", "coordinates": [-69.9098405700909, -5.331723875124335]}}, {"type": "Feature", "properties": {"norad_id": 66419, "name": "HULIANWANG DIGUI 13H", "group": "last-30-days", "lat": 0.5615796637288257, "lon": -64.96108287075309, "alt_km": 806.3146124793511, "timestamp": "2025-12-04T23:34:04.489909+00:00", "meta": {"OBJECT_NAME": "HULIANWANG DIGUI 13H", "OBJECT_ID": "2025-258H", "EPOCH": "2025-12-04T15:08:25.166976", "MEAN_MOTION": 14.23507653, "ECCENTRICITY": 0.0012081, "INCLINATION": 50.0006, "RA_OF_ASC_NODE": 296.0454, "ARG_OF_PERICENTER": 331.3469, "MEAN_ANOMALY": 28.6779, "EPHEMERIS_TYPE": 0, "CLASSIFICATION_TYPE": "U", "NORAD_CAT_ID": 66419, "ELEMENT_SET_NO": 999, "REV_AT_EPOCH": 350, "BSTAR": 0.00014559855, "MEAN_MOTION_DOT": 1.74e-06, "MEAN_MOTION_DDOT": 0}, "tle": {"line1": "1 66419U 25258H   25338.63084684  .00000174  00000+0  14560-3 0  9998", "line2": "2 66419  50.0006 296.0454 0012081 331.3469  28.6779 14.23507653  3503"}}, "geometry": {"type": "Point", "coordinates": [-64.96108287075309, 0.5615796637288257]}}, {"type": "Feature", "properties": {"norad_id": 66420, "name": "HULIANWANG DIGUI 13J", "group": "last-30-days", "lat": 4.974281854774651, "lon": -61.242837327328886, "alt_km": 806.1773184984795, "timestamp": "2025-12-04T23:34:04.489920+00:00", "meta": {"OBJECT_NAME": "HULIANWANG DIGUI 13J", "OBJECT_ID": "2025-258J", "EPOCH": "2025-12-04T15:06:47.522880", "MEAN_MOTION": 14.23475282, "ECCENTRICITY": 0.00113849, "INCLINATION": 50.0023, "RA_OF_ASC_NODE": 296.0493, "ARG_OF_PERICENTER": 338.4785, "MEAN_ANOMALY": 21.5648, "EPHEMERIS_TYPE": 0, "CLASSIFICATION_TYPE": "U", "NORAD_CAT_ID": 66420, "ELEMENT_SET_NO": 999, "REV_AT_EPOCH": 349, "BSTAR": 0.00014104025, "MEAN_MOTION_DOT": 1.63e-06, "MEAN_MOTION_DDOT": 0}, "tle": {"line1": "1 66420U 25258J   25338.62971670  .00000163  00000+0  14104-3 0  9991", "line2": "2 66420  50.0023 296.0493 0011384 338.4785  21.5648 14.23475282  3498"}}, "geometry": {"type": "Point", "coordinates": [-61.242837327328886, 4.974281854774651]}}, {"type": "Feature", "properties": {"norad_id": 66421, "name": "CZ-12 R/B", "group": "last-30-days", "lat": 44.993343917905456, "lon": 54.51576578653288, "alt_km": 759.2489708925223, "timestamp": "2025-12-04T23:34:04.489930+00:00", "meta": {"OBJECT_NAME": "CZ-12 R/B", "OBJECT_ID": "2025-258K", "EPOCH": "2025-12-04T14:43:43.596192", "MEAN_MOTION": 14.42317153, "ECCENTRICITY": 0.00646003, "INCLINATION": 49.9966, "RA_OF_ASC_NODE": 293.2072, "ARG_OF_PERICENTER": 220.1931, "MEAN_ANOMALY": 139.4203, "EPHEMERIS_TYPE": 0, "CLASSIFICATION_TYPE": "U", "NORAD_CAT_ID": 66421, "ELEMENT_SET_NO": 999, "REV_AT_EPOCH": 354, "BSTAR": 4.0819589e-05, "MEAN_MOTION_DOT": -3.2e-07, "MEAN_MOTION_DDOT": 0}, "tle": {"line1": "1 66421U 25258K   25338.61369903 -.00000032  00000+0  40820-4 0  9992", "line2": "2 66421  49.9966 293.2072 0064600 220.1931 139.4203 14.42317153  3548"}}, "geometry": {"type": "Point", "coordinates": [54.51576578653288, 44.993343917905456]}}, {"type": "Feature", "properties": {"norad_id": 66422, "name": "STARLINK-35617", "group": "last-30-days", "lat": 37.880307730274446, "lon": 149.4035848441848, "alt_km": 437.61024900434586, "timestamp": "2025-12-04T23:34:04.489941+00:00", "meta": {"OBJECT_NAME": "STARLINK-35617", "OBJECT_ID": "2025-259A", "EPOCH": "2025-12-04T18:00:02.000160", "MEAN_MOTION": 15.41867505, "ECCENTRICITY": 0.0001686, "INCLINATION": 43.0008, "RA_OF_ASC_NODE": 94.1478, "ARG_OF_PERICENTER": 312.3501, "MEAN_ANOMALY": 263.1248, "EPHEMERIS_TYPE": 0, "CLASSIFICATION_TYPE": "U", "NORAD_CAT_ID": 66422, "ELEMENT_SET_NO": 999, "REV_AT_EPOCH": 499, "BSTAR": -0.044535, "MEAN_MOTION_DOT": -0.01749391, "MEAN_MOTION_DDOT": 0}, "tle": {"line1": "1 66422U 25259A   25338.75002315 -.01749391  00000+0 -44535-1 0  9994", "line2": "2 66422  43.0008  94.1478 0001686 312.3501 263.1248 15.41867505  4996"}}, "geometry": {"type": "Point", "coordinates": [149.4035848441848, 37.880307730274446]}}, {"type": "Feature", "properties": {"norad_id": 66423, "name": "STARLINK-35618", "group": "last-30-days", "lat": 41.34328355460398, "lon": 163.54946258320936, "alt_km": 433.7274616749728, "timestamp": "2025-12-04T23:34:04.489951+00:00", "meta": {"OBJECT_NAME": "STARLINK-35618", "OBJECT_ID": "2025-259B", "EPOCH": "2025-12-04T18:00:02.000160", "MEAN_MOTION": 15.43221245, "ECCENTRICITY": 0.0001436, "INCLINATION": 43.0005, "RA_OF_ASC_NODE": 94.1233, "ARG_OF_PERICENTER": 282.2729, "MEAN_ANOMALY": 303.5165, "EPHEMERIS_TYPE": 0, "CLASSIFICATION_TYPE": "U", "NORAD_CAT_ID": 66423, "ELEMENT_SET_NO": 999, "REV_AT_EPOCH": 499, "BSTAR": -0.044128, "MEAN_MOTION_DOT": -0.01808318, "MEAN_MOTION_DDOT": 0}, "tle": {"line1": "1 66423U 25259B   25338.75002315 -.01808318  00000+0 -44128-1 0  9998", "line2": "2 66423  43.0005  94.1233 0001436 282.2729 303.5165 15.43221245  4997"}}, "geometry": {"type": "Point", "coordinates": [163.54946258320936, 41.34328355460398]}}, {"type": "Feature", "properties": {"norad_id": 66424, "name": "STARLINK-35588", "group": "last-30-days", "lat": 42.83447671612767, "lon": 176.96682538189384, "alt_km": 429.6934614057054, "timestamp": "2025-12-04T23:34:04.489963+00:00", "meta": {"OBJECT_NAME": "STARLINK-35588", "OBJECT_ID": "2025-259C", "EPOCH": "2025-12-04T18:00:02.000160", "MEAN_MOTION": 15.44616308, "ECCENTRICITY": 0.0001234, "INCLINATION": 43.001, "RA_OF_ASC_NODE": 94.1021, "ARG_OF_PERICENTER": 280.047, "MEAN_ANOMALY": 314.6854, "EPHEMERIS_TYPE": 0, "CLASSIFICATION_TYPE": "U", "NORAD_CAT_ID": 66424, "ELEMENT_SET_NO": 999, "REV_AT_EPOCH": 499, "BSTAR": -0.04729, "MEAN_MOTION_DOT": -0.02008349, "MEAN_MOTION_DDOT": 0}, "tle": {"line1": "1 66424U 25259C   25338.75002315 -.02008349  00000+0 -47290-1 0  9999", "line2": "2 66424  43.0010  94.1021 0001234 280.0470 314.6854 15.44616308  4991"}}, "geometry": {"type": "Point", "coordinates": [176.96682538189384, 42.83447671612767]}}, {"type": "Feature", "properties": {"norad_id": 66425, "name": "STARLINK-35555", "group": "last-30-days", "lat": 42.822701511998694, "lon": -171.2440407098157, "alt_km": 425.7595005678377, "timestamp": "2025-12-04T23:34:04.489974+00:00", "meta": {"OBJECT_NAME": "STARLINK-35555", "OBJECT_ID": "2025-259D", "EPOCH": "2025-12-04T18:00:02.000160", "MEAN_MOTION": 15.45944837, "ECCENTRICITY": 0.0001171, "INCLINATION": 43.0011, "RA_OF_ASC_NODE": 94.0815, "ARG_OF_PERICENTER": 281.5697, "MEAN_ANOMALY": 320.6937, "EPHEMERIS_TYPE": 0, "CLASSIFICATION_TYPE": "U", "NORAD_CAT_ID": 66425, "ELEMENT_SET_NO": 999, "REV_AT_EPOCH": 499, "BSTAR": -0.044921, "MEAN_MOTION_DOT": -0.01998588, "MEAN_MOTION_DDOT": 0}, "tle": {"line1": "1 66425U 25259D   25338.75002315 -.01998588  00000+0 -44921-1 0  9990", "line2": "2 66425  43.0011  94.0815 0001171 281.5697 320.6937 15.45944837  4991"}}, "geometry": {"type": "Point", "coordinates": [-171.2440407098157, 42.822701511998694]}}]}